CUTE-1.7+APD II (CO-65) 
1 32785U 08021C   26062.87560311  .00009717  00000+0  63010-3 0  9999
2 32785  97.8198  42.2431 0010278  36.7740 323.4191 15.08270933969319
SEEDS II (CO-66)        
1 32791U 08021J   26062.50727596  .00024010  00000+0  86001-3 0  9994
2 32791  97.7506  55.6816 0002563  18.3674 341.7657 15.28751446971120
YUBILEINY (RS30)        
1 32953U 08025A   26062.91339966  .00000124  00000+0  81901-3 0  9997
2 32953  82.4985  60.9174 0019319 177.8565 182.2601 12.43176325806614
KKS-1 (KISEKI)          
1 33499U 09002H   26062.72904367  .00002549  00000+0  32193-3 0  9993
2 33499  98.1190 343.5338 0006473 274.4198  85.6275 14.82801526920564
SWISSCUBE               
1 35932U 09051B   26062.66110515  .00001642  00000+0  33546-3 0  9994
2 35932  98.4105 328.6970 0006664 170.6668 189.4657 14.62239489873738
BEESAT-1                
1 35933U 09051C   26062.68531796  .00001377  00000+0  28744-3 0  9994
2 35933  98.4035 328.5738 0004889 181.8216 178.2968 14.61516240873779
ITUPSAT1                
1 35935U 09051E   26062.72139682  .00001275  00000+0  27434-3 0  9991
2 35935  98.4123 327.9111 0006873 197.5625 162.5338 14.60252771873345
XIWANG-1 (HOPE-1)       
1 36122U 09072B   26062.83303992  .00000325  00000+0  96812-3 0  9993
2 36122 100.3903  18.4066 0008041 111.9992 248.1975 13.16437439779147
O/OREOS (USA 219)       
1 37224U 10062C   26062.76946918  .00003411  00000+0  33093-3 0  9992
2 37224  71.9725 319.0425 0016922 266.6076  93.3159 14.93242441100902
JUGNU                   
1 37839U 11058B   26062.71648759  .00000525  00000+0  13477-3 0  9994
2 37839  19.9595 229.1867 0018654 351.7524 111.4447 14.13737595744086
SRMSAT                  
1 37841U 11058D   26062.20286726  .00000470  00000+0  11156-3 0  9994
2 37841  19.9732 340.9649 0011886 118.1185  34.7703 14.11544671742821
STRAND-1                
1 39090U 13009E   26062.43733931  .00000484  00000+0  17733-3 0  9992
2 39090  98.3881 245.2845 0008655 180.0154 180.1035 14.37088223681879
ZACUBE-1 (TSHEPISOSAT)  
1 39417U 13066B   26062.86089902  .00006842  00000+0  54155-3 0  9990
2 39417  97.8183  24.6561 0041678 239.6691 120.0407 15.00250727664939
GOMX-1                  
1 39430U 13066Q   26062.83113796  .00002255  00000+0  34457-3 0  9998
2 39430  97.6570 269.9016 0130614  56.1579 305.1979 14.69069925654444
CUBEBUG-2 (LO-74)       
1 39440U 13066AA  26062.86655321  .00008858  00000+0  83132-3 0  9996
2 39440  97.8812  11.5305 0059389  18.3107 342.0232 14.92865511661276
FUNCUBE-1 (AO-73)       
1 39444U 13066AE  26062.33666782  .00010715  00000+0  69419-3 0  9992
2 39444  97.8168  31.7675 0036610 201.2550 158.7158 15.07759862663702
